{"spkid": "50879250", "covariance": {"labels": ["e", "q", "tp", "node", "peri", "i"], "elements": [{"label": "e", "sigma": 7.31457076743801e-07, "name": "e", "title": "eccentricity", "value": ".3841428820494112", "units": null}, {"label": "q", "title": "perihelion distance", "value": ".5436078279754604", "units": "au", "name": "q", "sigma": 6.50514066943845e-07}, {"name": "tp", "sigma": 8.22976062237537e-05, "title": "time of perihelion passage", "value": "2459486.121681332321", "units": "TDB", "label": "tp"}, {"label": "node", "units": "deg", "value": "206.4051218988127", "title": "longitude of the ascending node", "sigma": 3.03112563086224e-05, "name": "om"}, {"name": "w", "sigma": 2.17295847004024e-05, "units": "deg", "title": "argument of perihelion", "value": "318.8334313117701", "label": "peri"}, {"label": "i", "units": "deg", "value": "21.69509079219194", "title": "inclination", "sigma": 5.80835834560644e-05, "name": "i"}], "data": [["5.350294551185861E-13", "-4.758167762860486E-13", "-5.275473968188058E-11", "-1.986499645542057E-11", "1.146757198117893E-12", "3.996006846760524E-11"], ["-4.758167762860486E-13", "4.231685512918216E-13", "4.683442276084015E-11", "1.766993821630689E-11", "-1.059250351889204E-12", "-3.554432627142879E-11"], ["-5.275473968188058E-11", "4.683442276084015E-11", "6.772895990160018E-9", "2.02175084193736E-9", "5.806382329678238E-10", "-3.94854753063163E-9"], ["-1.986499645542057E-11", "1.766993821630689E-11", "2.02175084193736E-9", "9.187722590070019E-10", "-1.784779884292049E-10", "-1.702644851239272E-9"], ["1.146757198117893E-12", "-1.059250351889204E-12", "5.806382329678238E-10", "-1.784779884292049E-10", "4.721748512519642E-10", "2.82725147839511E-10"], ["3.996006846760524E-11", "-3.554432627142879E-11", "-3.94854753063163E-9", "-1.702644851239272E-9", "2.82725147839511E-10", "3.373702667097593E-9"]], "epoch": "2459405.5"}, "elements": [{"label": "e", "name": "e", "sigma": "7.316E-7", "title": "eccentricity", "value": ".3840731215214355", "units": null}, {"label": "a", "name": "a", "sigma": "9.9007E-9", "value": ".8828649679898302", "title": "semi-major axis", "units": "au"}, {"name": "q", "sigma": "6.5095E-7", "units": "au", "title": "perihelion distance", "value": ".5437802638520539", "label": "q"}, {"name": "i", "sigma": "5.8074E-5", "units": "deg", "title": "inclination; angle with respect to x-y ecliptic plane", "value": "21.69560506771401", "label": "i"}, {"label": "node", "units": "deg", "value": "206.3830092281982", "title": "longitude of the ascending node", "sigma": "3.0312E-5", "name": "om"}, {"title": "argument of perihelion", "value": "318.8424714996752", "units": "deg", "name": "w", "sigma": "2.174E-5", "label": "peri"}, {"name": "ma", "sigma": ".00012009", "units": "deg", "title": "mean anomaly", "value": "237.2584758125692", "label": "M"}, {"label": "tp", "title": "time of perihelion passage", "value": "2461303.806789415131", "units": "TDB", "name": "tp", "sigma": ".00010235"}, {"name": "per", "sigma": "5.0969E-6", "title": "sidereal orbital period", "value": "302.9980639042412", "units": "d", "label": "period"}, {"label": "n", "sigma": "1.9986E-8", "name": "n", "units": "deg/d", "title": "mean motion", "value": "1.188126403717793"}, {"label": "Q", "units": "au", "title": "aphelion distance", "value": "1.221949672127606", "name": "ad", "sigma": "1.3703E-8"}], "epoch": "2461200.5"}